[{"OBJECT_NAME":"STARLINK-5191","OBJECT_ID":"2022-175F","EPOCH":"2026-03-09T04:54:34.405632","MEAN_MOTION":15.08840131,"ECCENTRICITY":0.00014032,"INCLINATION":53.2177,"RA_OF_ASC_NODE":46.4475,"ARG_OF_PERICENTER":87.52,"MEAN_ANOMALY":272.5953,"EPHEMERIS_TYPE":0,"CLASSIFICATION_TYPE":"U","NORAD_CAT_ID":54763,"ELEMENT_SET_NO":999,"REV_AT_EPOCH":17984,"BSTAR":2.932983e-5,"MEAN_MOTION_DOT":1.79e-6,"MEAN_MOTION_DDOT":0},{"OBJECT_NAME":"YAM-8","OBJECT_ID":"2025-052AW","EPOCH":"2026-03-09T17:32:32.161056","MEAN_MOTION":15.10898939,"ECCENTRICITY":0.00023693,"INCLINATION":97.7023,"RA_OF_ASC_NODE":329.5345,"ARG_OF_PERICENTER":152.6796,"MEAN_ANOMALY":207.4558,"EPHEMERIS_TYPE":0,"CLASSIFICATION_TYPE":"U","NORAD_CAT_ID":63254,"ELEMENT_SET_NO":999,"REV_AT_EPOCH":5424,"BSTAR":0.00047267461,"MEAN_MOTION_DOT":7.81e-5,"MEAN_MOTION_DDOT":0}]
